start=new Date('2023-03-08T00:00:00.000Z').valueOf();
sats=[{"REV_AT_EPOCH":"10290","MEAN_MOTION_DDOT":"0.0000000000000","CENTER_NAME":"EARTH","FILE":"3854072","APOAPSIS":"547.858","GP_ID":"227673213","ELEMENT_SET_NO":"999","MEAN_MOTION_DOT":"0.00001399","ARG_OF_PERICENTER":"80.0986","MEAN_ELEMENT_THEORY":"SGP4","EPHEMERIS_TYPE":"0","RCS_SIZE":"LARGE","ECCENTRICITY":"0.00009450","TLE_LINE1":"1 48385U 21038AJ  23066.73873992  .00001399  00000-0  11275-3 0  9998","OBJECT_NAME":"STARLINK-2598","OBJECT_ID":"2021-038AJ","PERIOD":"95.592","NORAD_CAT_ID":"48385","MEAN_MOTION":"15.06403169","TIME_SYSTEM":"UTC","LAUNCH_DATE":"2021-05-04","EPOCH":"2023-03-07T17:43:47.129088","RA_OF_ASC_NODE":"240.5126","OBJECT_TYPE":"PAYLOAD","PERIAPSIS":"546.549","COUNTRY_CODE":"US","BSTAR":"0.00011275000000","TLE_LINE2":"2 48385  53.0507 240.5126 0000945  80.0986 280.0109 15.06403169102906","MEAN_ANOMALY":"280.0109","CLASSIFICATION_TYPE":"U","REF_FRAME":"TEME","DECAY_DATE":null,"SEMIMAJOR_AXIS":"6925.339","INCLINATION":"53.0507","SITE":"AFETR"},{"ECCENTRICITY":"0.00011370","TLE_LINE1":"1 48386U 21038AK  23066.72629722  .00004138  00000-0  29645-3 0  9992","OBJECT_NAME":"STARLINK-2606","NORAD_CAT_ID":"48386","OBJECT_ID":"2021-038AK","PERIOD":"95.592","ARG_OF_PERICENTER":"88.2034","MEAN_MOTION_DOT":"0.00004138","EPHEMERIS_TYPE":"0","RCS_SIZE":"LARGE","MEAN_ELEMENT_THEORY":"SGP4","GP_ID":"227673461","FILE":"3854072","APOAPSIS":"547.979","ELEMENT_SET_NO":"999","CENTER_NAME":"EARTH","MEAN_MOTION_DDOT":"0.0000000000000","REV_AT_EPOCH":"10174","INCLINATION":"53.0482","SEMIMAJOR_AXIS":"6925.327","SITE":"AFETR","DECAY_DATE":null,"TLE_LINE2":"2 48386  53.0482 235.5777 0001137  88.2034 271.9085 15.06407061101741","PERIAPSIS":"546.405","COUNTRY_CODE":"US","BSTAR":"0.00029645000000","REF_FRAME":"TEME","MEAN_ANOMALY":"271.9085","CLASSIFICATION_TYPE":"U","TIME_SYSTEM":"UTC","MEAN_MOTION":"15.06407061","RA_OF_ASC_NODE":"235.5777","OBJECT_TYPE":"PAYLOAD","EPOCH":"2023-03-07T17:25:52.079808","LAUNCH_DATE":"2021-05-04"},{"ELEMENT_SET_NO":"999","GP_ID":"227674199","APOAPSIS":"547.268","FILE":"3854072","MEAN_MOTION_DDOT":"0.0000000000000","CENTER_NAME":"EARTH","REV_AT_EPOCH":"10177","NORAD_CAT_ID":"48387","OBJECT_ID":"2021-038AL","PERIOD":"95.577","TLE_LINE1":"1 48387U 21038AL  23066.88817195  .00030681  00000-0  20564-2 0  9995","OBJECT_NAME":"STARLINK-2600","ECCENTRICITY":"0.00011360","RCS_SIZE":"LARGE","EPHEMERIS_TYPE":"0","MEAN_ELEMENT_THEORY":"SGP4","ARG_OF_PERICENTER":"78.9878","MEAN_MOTION_DOT":"0.00030681","REF_FRAME":"TEME","CLASSIFICATION_TYPE":"U","MEAN_ANOMALY":"281.1239","TLE_LINE2":"2 48387  53.0513 234.8086 0001136  78.9878 281.1239 15.06639079101776","BSTAR":"0.00205640000000","COUNTRY_CODE":"US","PERIAPSIS":"545.694","OBJECT_TYPE":"PAYLOAD","RA_OF_ASC_NODE":"234.8086","LAUNCH_DATE":"2021-05-04","EPOCH":"2023-03-07T21:18:58.056480","MEAN_MOTION":"15.06639079","TIME_SYSTEM":"UTC","SITE":"AFETR","INCLINATION":"53.0513","SEMIMAJOR_AXIS":"6924.616","DECAY_DATE":null},{"EPHEMERIS_TYPE":"0","RCS_SIZE":"LARGE","MEAN_ELEMENT_THEORY":"SGP4","ARG_OF_PERICENTER":"90.3392","MEAN_MOTION_DOT":"0.00004863","NORAD_CAT_ID":"48388","PERIOD":"95.591","OBJECT_ID":"2021-038AM","ECCENTRICITY":"0.00011180","TLE_LINE1":"1 48388U 21038AM  23066.88479091  .00004863  00000-0  34502-3 0  9996","OBJECT_NAME":"STARLINK-2594","MEAN_MOTION_DDOT":"0.0000000000000","CENTER_NAME":"EARTH","REV_AT_EPOCH":"10177","ELEMENT_SET_NO":"999","GP_ID":"227672465","FILE":"3854072","APOAPSIS":"547.949","DECAY_DATE":null,"SITE":"AFETR","INCLINATION":"53.0515","SEMIMAJOR_AXIS":"6925.309","RA_OF_ASC_NODE":"234.8558","OBJECT_TYPE":"PAYLOAD","EPOCH":"2023-03-07T21:14:05.934624","LAUNCH_DATE":"2021-05-04","TIME_SYSTEM":"UTC","MEAN_MOTION":"15.06412814","REF_FRAME":"TEME","MEAN_ANOMALY":"269.7725","CLASSIFICATION_TYPE":"U","TLE_LINE2":"2 48388  53.0515 234.8558 0001118  90.3392 269.7725 15.06412814101770","PERIAPSIS":"546.400","BSTAR":"0.00034502000000","COUNTRY_CODE":"US"},{"CENTER_NAME":"EARTH","MEAN_MOTION_DDOT":"0.0000000000000","REV_AT_EPOCH":"10182","ELEMENT_SET_NO":"999","GP_ID":"227672714","APOAPSIS":"547.955","FILE":"3854072","EPHEMERIS_TYPE":"0","RCS_SIZE":"LARGE","MEAN_ELEMENT_THEORY":"SGP4","ARG_OF_PERICENTER":"80.1672","MEAN_MOTION_DOT":"0.00010145","NORAD_CAT_ID":"48389","OBJECT_ID":"2021-038AN","PERIOD":"95.591","ECCENTRICITY":"0.00011450","OBJECT_NAME":"STARLINK-1904","TLE_LINE1":"1 48389U 21038AN  23066.80505925  .00010145  00000-0  69867-3 0  9997","RA_OF_ASC_NODE":"230.2028","OBJECT_TYPE":"PAYLOAD","EPOCH":"2023-03-07T19:19:17.119200","LAUNCH_DATE":"2021-05-04","MEAN_MOTION":"15.06416765","TIME_SYSTEM":"UTC","REF_FRAME":"TEME","MEAN_ANOMALY":"279.9446","CLASSIFICATION_TYPE":"U","TLE_LINE2":"2 48389  53.0524 230.2028 0001145  80.1672 279.9446 15.06416765101829","PERIAPSIS":"546.369","COUNTRY_CODE":"US","BSTAR":"0.00069867000000","DECAY_DATE":null,"SITE":"AFETR","INCLINATION":"53.0524","SEMIMAJOR_AXIS":"6925.297"},{"OBJECT_NAME":"STARLINK-2586","TLE_LINE1":"1 48390U 21038AP  23066.86866608  .00000803  00000-0  72782-4 0  9994","ECCENTRICITY":"0.00014030","OBJECT_ID":"2021-038AP","PERIOD":"95.592","NORAD_CAT_ID":"48390","MEAN_MOTION_DOT":"0.00000803","ARG_OF_PERICENTER":"78.7609","MEAN_ELEMENT_THEORY":"SGP4","RCS_SIZE":"LARGE","EPHEMERIS_TYPE":"0","FILE":"3854072","APOAPSIS":"548.174","GP_ID":"227673961","ELEMENT_SET_NO":"999","REV_AT_EPOCH":"10305","MEAN_MOTION_DDOT":"0.0000000000000","CENTER_NAME":"EARTH","SEMIMAJOR_AXIS":"6925.337","INCLINATION":"53.0501","SITE":"AFETR","DECAY_DATE":null,"BSTAR":"0.00007278200000","COUNTRY_CODE":"US","PERIAPSIS":"546.231","TLE_LINE2":"2 48390  53.0501 229.9289 0001403  78.7609 281.3538 15.06403683103051","CLASSIFICATION_TYPE":"U","MEAN_ANOMALY":"281.3538","REF_FRAME":"TEME","MEAN_MOTION":"15.06403683","TIME_SYSTEM":"UTC","EPOCH":"2023-03-07T20:50:52.749312","LAUNCH_DATE":"2021-05-04","OBJECT_TYPE":"PAYLOAD","RA_OF_ASC_NODE":"229.9289"},{"MEAN_MOTION_DDOT":"0.0000000000000","CENTER_NAME":"EARTH","REV_AT_EPOCH":"10306","GP_ID":"227673700","FILE":"3854072","APOAPSIS":"547.953","ELEMENT_SET_NO":"999","ARG_OF_PERICENTER":"93.4400","MEAN_MOTION_DOT":"0.00025622","RCS_SIZE":"LARGE","EPHEMERIS_TYPE":"0","MEAN_ELEMENT_THEORY":"SGP4","TLE_LINE1":"1 48391U 21038AQ  23066.93132550  .00025622  00000-0  17315-2 0  9990","OBJECT_NAME":"STARLINK-2607","ECCENTRICITY":"0.00011840","NORAD_CAT_ID":"48391","PERIOD":"95.590","OBJECT_ID":"2021-038AQ","TIME_SYSTEM":"UTC","MEAN_MOTION":"15.06426268","OBJECT_TYPE":"PAYLOAD","RA_OF_ASC_NODE":"229.6477","EPOCH":"2023-03-07T22:21:06.523200","LAUNCH_DATE":"2021-05-04","TLE_LINE2":"2 48391  53.0528 229.6477 0001184  93.4400 266.6724 15.06426268103064","COUNTRY_CODE":"US","BSTAR":"0.00173150000000","PERIAPSIS":"546.313","REF_FRAME":"TEME","CLASSIFICATION_TYPE":"U","MEAN_ANOMALY":"266.6724","DECAY_DATE":null,"INCLINATION":"53.0528","SEMIMAJOR_AXIS":"6925.268","SITE":"AFETR"},{"TLE_LINE2":"2 48392  53.0542 229.9534 0001344  82.0189 278.0953 15.06410500103056","PERIAPSIS":"546.251","COUNTRY_CODE":"US","BSTAR":"0.00033165000000","REF_FRAME":"TEME","MEAN_ANOMALY":"278.0953","CLASSIFICATION_TYPE":"U","MEAN_MOTION":"15.06410500","TIME_SYSTEM":"UTC","RA_OF_ASC_NODE":"229.9534","OBJECT_TYPE":"PAYLOAD","EPOCH":"2023-03-07T20:40:15.795552","LAUNCH_DATE":"2021-05-04","INCLINATION":"53.0542","SEMIMAJOR_AXIS":"6925.316","SITE":"AFETR","DECAY_DATE":null,"GP_ID":"227672965","FILE":"3854072","APOAPSIS":"548.112","ELEMENT_SET_NO":"999","MEAN_MOTION_DDOT":"0.0000000000000","CENTER_NAME":"EARTH","REV_AT_EPOCH":"10305","ECCENTRICITY":"0.00013440","OBJECT_NAME":"STARLINK-2605","TLE_LINE1":"1 48392U 21038AR  23066.86129393  .00004663  00000-0  33165-3 0  9998","NORAD_CAT_ID":"48392","PERIOD":"95.591","OBJECT_ID":"2021-038AR","ARG_OF_PERICENTER":"82.0189","MEAN_MOTION_DOT":"0.00004663","EPHEMERIS_TYPE":"0","RCS_SIZE":"LARGE","MEAN_ELEMENT_THEORY":"SGP4"},{"MEAN_ELEMENT_THEORY":"SGP4","EPHEMERIS_TYPE":"0","RCS_SIZE":"LARGE","MEAN_MOTION_DOT":"0.00004237","ARG_OF_PERICENTER":"90.4308","OBJECT_ID":"2021-038AS","PERIOD":"95.592","NORAD_CAT_ID":"48393","ECCENTRICITY":"0.00014240","TLE_LINE1":"1 48393U 21038AS  23066.85760870  .00004237  00000-0  30311-3 0  9996","OBJECT_NAME":"STARLINK-2602","REV_AT_EPOCH":"10305","CENTER_NAME":"EARTH","MEAN_MOTION_DDOT":"0.0000000000000","ELEMENT_SET_NO":"999","APOAPSIS":"548.172","FILE":"3854072","GP_ID":"227673214","DECAY_DATE":null,"SITE":"AFETR","SEMIMAJOR_AXIS":"6925.321","INCLINATION":"53.0535","LAUNCH_DATE":"2021-05-04","EPOCH":"2023-03-07T20:34:57.391680","RA_OF_ASC_NODE":"229.9694","OBJECT_TYPE":"PAYLOAD","TIME_SYSTEM":"UTC","MEAN_MOTION":"15.06409077","MEAN_ANOMALY":"269.6844","CLASSIFICATION_TYPE":"U","REF_FRAME":"TEME","PERIAPSIS":"546.200","BSTAR":"0.00030311000000","COUNTRY_CODE":"US","TLE_LINE2":"2 48393  53.0535 229.9694 0001424  90.4308 269.6844 15.06409077103053"},{"ECCENTRICITY":"0.00012500","TLE_LINE1":"1 48394U 21038AT  23066.85392224  .00003652  00000-0  26384-3 0  9996","OBJECT_NAME":"STARLINK-2573","OBJECT_ID":"2021-038AT","PERIOD":"95.592","NORAD_CAT_ID":"48394","MEAN_MOTION_DOT":"0.00003652","ARG_OF_PERICENTER":"89.2086","MEAN_ELEMENT_THEORY":"SGP4","EPHEMERIS_TYPE":"0","RCS_SIZE":"LARGE","APOAPSIS":"548.052","FILE":"3854072","GP_ID":"227673462","ELEMENT_SET_NO":"999","REV_AT_EPOCH":"10305","MEAN_MOTION_DDOT":"0.0000000000000","CENTER_NAME":"EARTH","SEMIMAJOR_AXIS":"6925.321","INCLINATION":"53.0532","SITE":"AFETR","DECAY_DATE":null,"PERIAPSIS":"546.320","BSTAR":"0.00026384000000","COUNTRY_CODE":"US","TLE_LINE2":"2 48394  53.0532 229.9878 0001250  89.2086 270.9046 15.06409001103057","MEAN_ANOMALY":"270.9046","CLASSIFICATION_TYPE":"U","REF_FRAME":"TEME","TIME_SYSTEM":"UTC","MEAN_MOTION":"15.06409001","LAUNCH_DATE":"2021-05-04","EPOCH":"2023-03-07T20:29:38.881536","RA_OF_ASC_NODE":"229.9878","OBJECT_TYPE":"PAYLOAD"}];
